ONEWEB-0232             
1 48781U 21045Q   26140.61298381  .00000011  00000+0 -48259-5 0  9996
2 48781  87.9003 264.6760 0001811 101.0889 259.0445 13.15549413241020
ONEWEB-0231             
1 48782U 21045R   26140.59077820  .00000034  00000+0  56076-4 0  9996
2 48782  87.8987 264.6957 0001653  95.2121 264.9198 13.15550891240713
ONEWEB-0234             
1 48783U 21045S   26140.62867962  .00000142  00000+0  34357-3 0  9992
2 48783  87.8992 264.6687 0001845 126.2775 233.8526 13.15546774240853
ONEWEB-0238             
1 48784U 21045T   26140.62896977  .00000159  00000+0  38754-3 0  9994
2 48784  87.8997 264.6616 0001820 113.4691 246.6631 13.15549726240757
ONEWEB-0240             
1 48785U 21045U   26140.57415860  .00000192  00000+0  47503-3 0  9996
2 48785  87.9003 264.6833 0001533  99.0266 261.1038 13.15549467240773
ONEWEB-0246             
1 48786U 21045V   26140.64466933  .00000201  00000+0  49877-3 0  9999
2 48786  87.8999 264.6743 0001903  96.8141 263.3206 13.15549649240655
ONEWEB-0210             
1 48787U 21045W   26140.61932840  .00000042  00000+0  77817-4 0  9991
2 48787  87.8993 264.6760 0002053  74.4043 285.7314 13.15549380240693
ONEWEB-0214             
1 48788U 21045X   26140.62802266  .00001031  00000+0  27038-2 0  9998
2 48788  87.8998 264.6709 0002068  91.9052 268.2315 13.15557689240667
ONEWEB-0221             
1 48789U 21045Y   26140.63514491  .00000197  00000+0  49024-3 0  9992
2 48789  87.8998 264.6788 0001713  96.3035 263.8290 13.15550270240753
ONEWEB-0213             
1 48790U 21045Z   26140.62406877  .00000114  00000+0  26838-3 0  9998
2 48790  87.8995 264.6842 0001740  90.7123 269.4207 13.15549447240810
ONEWEB-0212             
1 48791U 21045AA  26140.60110097 -.00000017  00000+0 -79522-4 0  9996
2 48791  87.8997 264.6830 0001821 101.5297 258.6038 13.15548455240802
ONEWEB-0227             
1 48792U 21045AB  26140.60029400 -.00000019  00000+0 -83414-4 0  9991
2 48792  87.9000 264.6846 0001753  99.1793 260.9536 13.15546987240754
ONEWEB-0226             
1 48793U 21045AC  26140.59396822 -.00000039  00000+0 -13766-3 0  9999
2 48793  87.8993 264.6913 0001843  91.3159 268.8183 13.15547579240720
ONEWEB-0224             
1 48794U 21045AD  26140.63357686  .00000261  00000+0  65999-3 0  9990
2 48794  87.8985 264.7183 0001268 121.7111 238.4143 13.15550149240657
ONEWEB-0233             
1 48795U 21045AE  26140.63817155  .00000220  00000+0  54994-3 0  9991
2 48795  87.8987 264.7255 0001577  96.0218 264.1092 13.15551170240671
ONEWEB-0190             
1 48796U 21045AF  26140.62565281  .00000100  00000+0  23259-3 0  9998
2 48796  87.8989 264.6893 0001526  77.6872 282.4429 13.15549144240749
