[{"OBJECT_NAME":"ONEWEB-0232","OBJECT_ID":"2021-045Q","EPOCH":"2026-05-20T14:42:41.801184","MEAN_MOTION":13.15549413,"ECCENTRICITY":0.0001811,"INCLINATION":87.9003,"RA_OF_ASC_NODE":264.676,"ARG_OF_PERICENTER":101.0889,"MEAN_ANOMALY":259.0445,"EPHEMERIS_TYPE":0,"CLASSIFICATION_TYPE":"U","NORAD_CAT_ID":48781,"ELEMENT_SET_NO":999,"REV_AT_EPOCH":24102,"BSTAR":-4.825900000000001e-06,"MEAN_MOTION_DOT":1.1e-07,"MEAN_MOTION_DDOT":0.0},{"OBJECT_NAME":"ONEWEB-0231","OBJECT_ID":"2021-045R","EPOCH":"2026-05-20T14:10:43.236480","MEAN_MOTION":13.15550891,"ECCENTRICITY":0.0001653,"INCLINATION":87.8987,"RA_OF_ASC_NODE":264.6957,"ARG_OF_PERICENTER":95.2121,"MEAN_ANOMALY":264.9198,"EPHEMERIS_TYPE":0,"CLASSIFICATION_TYPE":"U","NORAD_CAT_ID":48782,"ELEMENT_SET_NO":999,"REV_AT_EPOCH":24071,"BSTAR":5.6076e-05,"MEAN_MOTION_DOT":3.4e-07,"MEAN_MOTION_DDOT":0.0},{"OBJECT_NAME":"ONEWEB-0234","OBJECT_ID":"2021-045S","EPOCH":"2026-05-20T15:05:17.919168","MEAN_MOTION":13.15546774,"ECCENTRICITY":0.0001845,"INCLINATION":87.8992,"RA_OF_ASC_NODE":264.6687,"ARG_OF_PERICENTER":126.2775,"MEAN_ANOMALY":233.8526,"EPHEMERIS_TYPE":0,"CLASSIFICATION_TYPE":"U","NORAD_CAT_ID":48783,"ELEMENT_SET_NO":999,"REV_AT_EPOCH":24085,"BSTAR":0.00034357,"MEAN_MOTION_DOT":1.42e-06,"MEAN_MOTION_DDOT":0.0},{"OBJECT_NAME":"ONEWEB-0238","OBJECT_ID":"2021-045T","EPOCH":"2026-05-20T15:05:42.988128","MEAN_MOTION":13.15549726,"ECCENTRICITY":0.000182,"INCLINATION":87.8997,"RA_OF_ASC_NODE":264.6616,"ARG_OF_PERICENTER":113.4691,"MEAN_ANOMALY":246.6631,"EPHEMERIS_TYPE":0,"CLASSIFICATION_TYPE":"U","NORAD_CAT_ID":48784,"ELEMENT_SET_NO":999,"REV_AT_EPOCH":24075,"BSTAR":0.00038754,"MEAN_MOTION_DOT":1.59e-06,"MEAN_MOTION_DDOT":0.0},{"OBJECT_NAME":"ONEWEB-0240","OBJECT_ID":"2021-045U","EPOCH":"2026-05-20T13:46:47.303040","MEAN_MOTION":13.15549467,"ECCENTRICITY":0.0001533,"INCLINATION":87.9003,"RA_OF_ASC_NODE":264.6833,"ARG_OF_PERICENTER":99.0266,"MEAN_ANOMALY":261.1038,"EPHEMERIS_TYPE":0,"CLASSIFICATION_TYPE":"U","NORAD_CAT_ID":48785,"ELEMENT_SET_NO":999,"REV_AT_EPOCH":24077,"BSTAR":0.00047503000000000004,"MEAN_MOTION_DOT":1.92e-06,"MEAN_MOTION_DDOT":0.0},{"OBJECT_NAME":"ONEWEB-0246","OBJECT_ID":"2021-045V","EPOCH":"2026-05-20T15:28:19.430112","MEAN_MOTION":13.15549649,"ECCENTRICITY":0.0001903,"INCLINATION":87.8999,"RA_OF_ASC_NODE":264.6743,"ARG_OF_PERICENTER":96.8141,"MEAN_ANOMALY":263.3206,"EPHEMERIS_TYPE":0,"CLASSIFICATION_TYPE":"U","NORAD_CAT_ID":48786,"ELEMENT_SET_NO":999,"REV_AT_EPOCH":24065,"BSTAR":0.00049877,"MEAN_MOTION_DOT":2.01e-06,"MEAN_MOTION_DDOT":0.0},{"OBJECT_NAME":"ONEWEB-0210","OBJECT_ID":"2021-045W","EPOCH":"2026-05-20T14:51:49.973760","MEAN_MOTION":13.1554938,"ECCENTRICITY":0.0002053,"INCLINATION":87.8993,"RA_OF_ASC_NODE":264.676,"ARG_OF_PERICENTER":74.4043,"MEAN_ANOMALY":285.7314,"EPHEMERIS_TYPE":0,"CLASSIFICATION_TYPE":"U","NORAD_CAT_ID":48787,"ELEMENT_SET_NO":999,"REV_AT_EPOCH":24069,"BSTAR":7.7817e-05,"MEAN_MOTION_DOT":4.2e-07,"MEAN_MOTION_DDOT":0.0},{"OBJECT_NAME":"ONEWEB-0214","OBJECT_ID":"2021-045X","EPOCH":"2026-05-20T15:04:21.157824","MEAN_MOTION":13.15557689,"ECCENTRICITY":0.0002068,"INCLINATION":87.8998,"RA_OF_ASC_NODE":264.6709,"ARG_OF_PERICENTER":91.9052,"MEAN_ANOMALY":268.2315,"EPHEMERIS_TYPE":0,"CLASSIFICATION_TYPE":"U","NORAD_CAT_ID":48788,"ELEMENT_SET_NO":999,"REV_AT_EPOCH":24066,"BSTAR":0.0027038,"MEAN_MOTION_DOT":1.031e-05,"MEAN_MOTION_DDOT":0.0},{"OBJECT_NAME":"ONEWEB-0221","OBJECT_ID":"2021-045Y","EPOCH":"2026-05-20T15:14:36.520224","MEAN_MOTION":13.1555027,"ECCENTRICITY":0.0001713,"INCLINATION":87.8998,"RA_OF_ASC_NODE":264.6788,"ARG_OF_PERICENTER":96.3035,"MEAN_ANOMALY":263.829,"EPHEMERIS_TYPE":0,"CLASSIFICATION_TYPE":"U","NORAD_CAT_ID":48789,"ELEMENT_SET_NO":999,"REV_AT_EPOCH":24075,"BSTAR":0.00049024,"MEAN_MOTION_DOT":1.97e-06,"MEAN_MOTION_DDOT":0.0},{"OBJECT_NAME":"ONEWEB-0213","OBJECT_ID":"2021-045Z","EPOCH":"2026-05-20T14:58:39.541728","MEAN_MOTION":13.15549447,"ECCENTRICITY":0.000174,"INCLINATION":87.8995,"RA_OF_ASC_NODE":264.6842,"ARG_OF_PERICENTER":90.7123,"MEAN_ANOMALY":269.4207,"EPHEMERIS_TYPE":0,"CLASSIFICATION_TYPE":"U","NORAD_CAT_ID":48790,"ELEMENT_SET_NO":999,"REV_AT_EPOCH":24081,"BSTAR":0.00026838000000000003,"MEAN_MOTION_DOT":1.14e-06,"MEAN_MOTION_DDOT":0.0},{"OBJECT_NAME":"ONEWEB-0212","OBJECT_ID":"2021-045AA","EPOCH":"2026-05-20T14:25:35.123808","MEAN_MOTION":13.15548455,"ECCENTRICITY":0.0001821,"INCLINATION":87.8997,"RA_OF_ASC_NODE":264.683,"ARG_OF_PERICENTER":101.5297,"MEAN_ANOMALY":258.6038,"EPHEMERIS_TYPE":0,"CLASSIFICATION_TYPE":"U","NORAD_CAT_ID":48791,"ELEMENT_SET_NO":999,"REV_AT_EPOCH":24080,"BSTAR":-7.9522e-05,"MEAN_MOTION_DOT":-1.7e-07,"MEAN_MOTION_DDOT":0.0},{"OBJECT_NAME":"ONEWEB-0227","OBJECT_ID":"2021-045AB","EPOCH":"2026-05-20T14:24:25.401600","MEAN_MOTION":13.15546987,"ECCENTRICITY":0.0001753,"INCLINATION":87.9,"RA_OF_ASC_NODE":264.6846,"ARG_OF_PERICENTER":99.1793,"MEAN_ANOMALY":260.9536,"EPHEMERIS_TYPE":0,"CLASSIFICATION_TYPE":"U","NORAD_CAT_ID":48792,"ELEMENT_SET_NO":999,"REV_AT_EPOCH":24075,"BSTAR":-8.3414e-05,"MEAN_MOTION_DOT":-1.9e-07,"MEAN_MOTION_DDOT":0.0},{"OBJECT_NAME":"ONEWEB-0226","OBJECT_ID":"2021-045AC","EPOCH":"2026-05-20T14:15:18.854208","MEAN_MOTION":13.15547579,"ECCENTRICITY":0.0001843,"INCLINATION":87.8993,"RA_OF_ASC_NODE":264.6913,"ARG_OF_PERICENTER":91.3159,"MEAN_ANOMALY":268.8183,"EPHEMERIS_TYPE":0,"CLASSIFICATION_TYPE":"U","NORAD_CAT_ID":48793,"ELEMENT_SET_NO":999,"REV_AT_EPOCH":24072,"BSTAR":-0.00013766,"MEAN_MOTION_DOT":-3.9e-07,"MEAN_MOTION_DDOT":0.0},{"OBJECT_NAME":"ONEWEB-0224","OBJECT_ID":"2021-045AD","EPOCH":"2026-05-20T15:12:21.040704","MEAN_MOTION":13.15550149,"ECCENTRICITY":0.0001268,"INCLINATION":87.8985,"RA_OF_ASC_NODE":264.7183,"ARG_OF_PERICENTER":121.7111,"MEAN_ANOMALY":238.4143,"EPHEMERIS_TYPE":0,"CLASSIFICATION_TYPE":"U","NORAD_CAT_ID":48794,"ELEMENT_SET_NO":999,"REV_AT_EPOCH":24065,"BSTAR":0.00065999,"MEAN_MOTION_DOT":2.61e-06,"MEAN_MOTION_DDOT":0.0},{"OBJECT_NAME":"ONEWEB-0233","OBJECT_ID":"2021-045AE","EPOCH":"2026-05-20T15:18:58.021920","MEAN_MOTION":13.1555117,"ECCENTRICITY":0.0001577,"INCLINATION":87.8987,"RA_OF_ASC_NODE":264.7255,"ARG_OF_PERICENTER":96.0218,"MEAN_ANOMALY":264.1092,"EPHEMERIS_TYPE":0,"CLASSIFICATION_TYPE":"U","NORAD_CAT_ID":48795,"ELEMENT_SET_NO":999,"REV_AT_EPOCH":24067,"BSTAR":0.00054994,"MEAN_MOTION_DOT":2.2e-06,"MEAN_MOTION_DDOT":0.0},{"OBJECT_NAME":"ONEWEB-0190","OBJECT_ID":"2021-045AF","EPOCH":"2026-05-20T15:00:56.402784","MEAN_MOTION":13.15549144,"ECCENTRICITY":0.0001526,"INCLINATION":87.8989,"RA_OF_ASC_NODE":264.6893,"ARG_OF_PERICENTER":77.6872,"MEAN_ANOMALY":282.4429,"EPHEMERIS_TYPE":0,"CLASSIFICATION_TYPE":"U","NORAD_CAT_ID":48796,"ELEMENT_SET_NO":999,"REV_AT_EPOCH":24074,"BSTAR":0.00023259,"MEAN_MOTION_DOT":1e-06,"MEAN_MOTION_DDOT":0.0}]